CUTE-1 (CO-55)          
1 27844U 03031E   19138.48599457  .00000048  00000-0  41323-4 0  9994
2 27844  98.6846 147.1653 0010963 118.3523 241.8762 14.22176393823851
CUBESAT XI-IV (CO-57)   
1 27848U 03031J   19138.82111950  .00000039  00000-0  37531-4 0  9990
2 27848  98.6924 147.9887 0010732 127.7510 232.4641 14.21771645823754
CUBESAT XI-V            
1 28895U 05043F   19138.60851349  .00000123  00000-0  32347-4 0  9991
2 28895  97.9545 282.4135 0018261  90.3722 269.9574 14.63660336722943
CUTE-1.7+APD II (CO-65) 
1 32785U 08021C   19138.89317122  .00000209  00000-0  28145-4 0  9996
2 32785  97.5494 140.0610 0013357  12.2644 347.8896 14.88297386599100
AAUSAT-II               
1 32788U 08021F   19138.18580340  .00000791  00000-0  77862-4 0  9991
2 32788  97.4984 155.3092 0010409 311.0620  48.9701 14.94697246600213
DELFI-C3 (DO-64)        
1 32789U 08021G   19139.07291067  .00001306  00000-0  91437-4 0  9993
2 32789  97.4669 189.6593 0011110 223.5987 136.4363 15.06888983602351
SEEDS II (CO-66)        
1 32791U 08021J   19138.89626435  .00000416  00000-0  47580-4 0  9997
2 32791  97.5284 146.0046 0012920 347.7307  12.3595 14.90801970599529
SWISSCUBE               
1 35932U 09051B   19138.95299839  .00000125  00000-0  39297-4 0  9995
2 35932  98.5850 304.0317 0006407 257.3610 102.6871 14.56275669512305
BEESAT-1                
1 35933U 09051C   19138.13341641  .00000116  00000-0  37280-4 0  9995
2 35933  98.5877 304.9315 0004575 276.5348  83.5328 14.56365750512290
ITUPSAT1                
1 35935U 09051E   19139.13531900  .00000082  00000-0  30140-4 0  9997
2 35935  98.5989 306.2031 0006894 269.0672  90.9735 14.55527284512193
TISAT 1                 
1 36799U 10035E   19138.88066652  .00000325  00000-0  38923-4 0  9995
2 36799  98.1518 290.0191 0012304 180.4669 179.6538 14.91082654480173
M-CUBED & EXP-1 PRIME   
1 37855U 11061F   19139.09230325  .00001084  00000-0  62097-4 0  9995
2 37855 101.7186  18.9819 0173758 167.4805 193.0808 15.05346003412173
STRAND-1                
1 39090U 13009E   19138.82941150  .00000027  00000-0  24581-4 0  9999
2 39090  98.4914 345.3017 0009730  27.6902 332.4800 14.35083307325965
SOMP                    
1 39134U 13015E   19138.89969987  .00001175  00000-0  63155-4 0  9995
2 39134  64.8619 120.1918 0028169 309.0951  50.7671 15.20083253335917
BEESAT-3                
1 39135U 13015F   19138.83321651  .00001034  00000-0  61208-4 0  9991
2 39135  64.8655 138.2753 0016527 324.4569  35.5454 15.17398954335560
BEESAT-2                
1 39136U 13015G   19138.79274777  .00000809  00000-0  50791-4 0  9997
2 39136  64.8679 142.1340 0017246 308.7198  51.2385 15.16839086335489
NEE-01 PEGASO           
1 39151U 13018B   19138.98533789  .00000135  00000-0  24780-4 0  9990
2 39151  97.9699 235.6340 0015788 303.9681  56.0029 14.80035614327187
ESTCUBE 1               
1 39161U 13021C   19139.20575831  .00000116  00000-0  26270-4 0  9990
2 39161  97.9880 224.6158 0010872  66.8825 293.3541 14.72192653323885
POPACS 1                
1 39268U 13055D   19138.04347782  .00002224  00000-0  61939-4 0  9991
2 39268  81.0031 354.3942 0626720 317.4972  37.9255 14.36770863292491
POPACS 2                
1 39269U 13055E   19138.10938399  .00003043  00000-0  86613-4 0  9995
2 39269  81.0174  23.3608 0685627  32.5082 331.6446 14.23772901290776
POPACS 3                
1 39270U 13055F   19138.72074677  .00001651  00000-0  49805-4 0  9990
2 39270  81.0196  39.1099 0715594  78.2918 289.7595 14.15733676289811
ZACUBE-1 (TSHEPISOSAT)  
1 39417U 13066B   19138.83081311  .00000217  00000-0  33551-4 0  9998
2 39417  97.5639 154.0653 0060148 134.1540 226.4641 14.81101029296476
WNISAT-1                
1 39423U 13066H   19139.05889225  .00000136  00000-0  36276-4 0  9997
2 39423  97.7740  83.1154 0176425  49.0288 312.6024 14.53037050291003
TRITON-1                
1 39427U 13066M   19138.84729443  .00000154  00000-0  32804-4 0  9995
2 39427  97.6740 118.1354 0112277 264.2257  94.6139 14.67826962293817
GOMX-1                  
1 39430U 13066Q   19139.17776317  .00000350  00000-0  72380-4 0  9999
2 39430  97.7440  97.7443 0151613 351.0684   8.7823 14.59240977292155
CUBEBUG-2 (LO-74)       
1 39440U 13066AA  19139.03799642  .00000172  00000-0  30933-4 0  9991
2 39440  97.6019 139.2866 0080169 183.4389 176.6281 14.75840076295457
NEE-02 KRYSAOR          
1 39441U 13066AB  19138.99375169  .00000107  00000-0  22377-4 0  9991
2 39441  97.6057 137.0610 0081455 190.4020 169.5508 14.74896796295274
FUNCUBE-1 (AO-73)       
1 39444U 13066AE  19138.71335069  .00000277  00000-0  40188-4 0  9997
2 39444  97.5621 155.8691 0059400 128.6432 232.0120 14.81916646295344
UWE-3                   
1 39446U 13066AG  19138.89165445  .00000194  00000-0  32284-4 0  9993
2 39446  97.5817 146.1337 0070590 159.3539 201.0551 14.78374161294715
BRITE-CA1 (TORONTO)     
1 40020U 14033L   19139.04353888  .00000072  00000-0  20917-4 0  9991
2 40020  97.7500 344.5726 0086046 254.0990 105.0720 14.66570110262804
DUCHIFAT-1              
1 40021U 14033M   19138.73247255  .00000475  00000-0  54334-4 0  9994
2 40021  97.9240  63.2247 0013558 146.4113 213.7967 14.90604560266932
NANOSATC-BR1            
1 40024U 14033Q   19138.74298048  .00000332  00000-0  40470-4 0  9992
2 40024  97.9140  60.7360 0012795 149.4403 210.7562 14.89821954266832
QB50P1                  
1 40025U 14033R   19138.71944121  .00000288  00000-0  36654-4 0  9999
2 40025  97.9067  58.4527 0012896 155.1432 205.0408 14.88925153266716
QB50P2                  
1 40032U 14033Y   19137.97191838  .00000256  00000-0  33628-4 0  9996
2 40032  97.8996  55.9201 0012364 153.4663 206.7189 14.88461049266524
PERSEUS-M2              
1 40037U 14033AD  19138.18946684  .00000073  00000-0  14470-4 0  9993
2 40037  97.8931  52.4999 0014655 165.9497 194.2129 14.86451334266295
PERSEUS-M1              
1 40039U 14033AF  19138.83850322  .00000059  00000-0  13044-4 0  9990
2 40039  97.8916  52.2730 0014621 161.2215 198.9542 14.86071855266321
POLYITAN-1              
1 40042U 14033AJ  19137.83630662  .00000297  00000-0  37836-4 0  9995
2 40042  97.9146  57.8628 0015250 148.9249 211.2873 14.88636600266497
TIGRISAT                
1 40043U 14033AK  19138.87869562  .00000123  00000-0  25563-4 0  9996
2 40043  97.7619   8.0246 0059500 194.9790 164.9659 14.74258429264064
AEROCUBE 6A             
1 40045U 14033AM  19138.84301707  .00000264  00000-0  45319-4 0  9994
2 40045  97.7838  11.6252 0057375 187.9238 172.1072 14.75368485264013
AEROCUBE 6B             
1 40046U 14033AN  19138.64433285  .00000274  00000-0  46741-4 0  9991
2 40046  97.7777  11.0866 0056714 187.8940 172.1383 14.75349157264128
UKUBE-1                 
1 40074U 14037F   19139.15443909  .00000437  00000-0  59622-4 0  9990
2 40074  98.4337 299.3864 0003842 338.3368  21.7676 14.84034189263128
BRITE-PL2 (HEWELIUSZ)   
1 40119U 14049B   19138.84736084  .00000085  00000-0  16568-4 0  9998
2 40119  97.9035 229.7594 0016525 325.7740  34.2408 14.84397511257092
FIREBIRD 4              
1 40378U 15003C   19139.16746221  .00001131  00000-0  48698-4 0  9998
2 40378  99.1116 113.2418 0127359 191.5633 168.2665 15.18666685237295
GRIFEX                  
1 40379U 15003D   19139.15789419  .00000798  00000-0  38512-4 0  9996
2 40379  99.1105 107.4854 0134941 209.6000 149.7542 15.15393253236963
EXOCUBE (CP10)          
1 40380U 15003E   19138.83684869  .00000796  00000-0  40157-4 0  9991
2 40380  99.1126 103.9573 0139604 221.2606 137.8005 15.13430660236706
TIANWANG 1C (TW-1C)     
1 40926U 15051B   19139.02661932  .00014277  00000-0  21273-3 0  9994
2 40926  97.1383 185.2481 0009809 122.5963 321.2881 15.55151697205396
TIANWANG 1A (TW-1A)     
1 40928U 15051D   19139.15914255  .00004275  00000-0  10686-3 0  9992
2 40928  97.1480 171.1381 0011128 174.9336 257.6873 15.40609092204473
EXACTVIEW 9             
1 40936U 15052G   19138.81573270  .00000791  00000-0  21735-4 0  9999
2 40936   6.0036 281.2216 0009951  64.1205 295.9948 14.76481380196658
ATHENOXAT 1             
1 41168U 15077C   19139.12928378  .00001886  00000-0  64782-4 0  9997
2 41168  14.9882  80.0408 0011491  28.9901 331.1057 15.13573977189342
GALASSIA                
1 41170U 15077E   19139.12917647  .00001851  00000-0  62095-4 0  9994
2 41170  14.9889  73.3069 0012825  52.3791 307.7693 15.13907909189408
VELOX-II                
1 41171U 15077F   19139.13838761  .00001391  00000-0  41839-4 0  9997
2 41171  14.9909 104.9798 0008834 331.9755  28.0090 15.11175735189128
HORYU-4                 
1 41340U 16012D   19138.92040004  .00000488  00000-0  30350-4 0  9998
2 41340  31.0056 330.1617 0014061 184.5444 175.5066 15.01248035178388
E-ST@R-II               
1 41459U 16025D   19139.16325165  .00002734  00000-0  14196-3 0  9999
2 41459  98.1021 224.1397 0169844 101.1512 260.8856 15.05388407167951
AAUSAT 4                
1 41460U 16025E   19139.17670533  .00004383  00000-0  22105-3 0  9995
2 41460  98.0969 225.3178 0159420  94.0326 267.9137 15.07240348168072
DIWATA-1                
1 41463U 98067HT  19139.17075316  .00021033  00000-0  11141-3 0  9991
2 41463  51.6323  45.3484 0002429  86.2428  65.8739 15.80523435174944
BEESAT-4                
1 41619U 16040W   19138.24255290  .00001359  00000-0  60579-4 0  9992
2 41619  97.3697 201.0492 0012824 129.2045 231.0333 15.23043616149079
CANX-7                  
1 41788U 16059F   19139.17025630  .00007972  00000-0  12186-2 0  9991
2 41788  98.2366 214.0718 0032252 111.6872 248.7766 14.73692422141519
RAVAN                   
1 41849U 16067B   19138.80324543  .00000466  00000-0  44460-4 0  9995
2 41849  97.9174 237.4733 0009602 123.0354 237.1791 14.98190889137377
CELTEE 1                
1 41850U 16067C   19138.19013938 -.00000096  00000-0 -30444-5 0  9991
2 41850  97.9146 235.6223 0009780 124.2615 235.9534 14.96993245137211
